{
    "CCSDS_OMM_VERS": "3.0",
    "COMMENT": "GENERATED VIA SPACE-TRACK.ORG API",
    "CREATION_DATE": "2025-05-22T17:14:14",
    "ORIGINATOR": "18 SPCS",
    "OBJECT_NAME": "COSMOS 2485 (GLONASS)",
    "OBJECT_ID": "2013-019A",
    "CENTER_NAME": "EARTH",
    "REF_FRAME": "TEME",
    "TIME_SYSTEM": "UTC",
    "MEAN_ELEMENT_THEORY": "SGP4",
    "EPOCH": "2025-05-21T13:11:01.876992",
    "MEAN_MOTION": "2.13104487",
    "ECCENTRICITY": "0.00236270",
    "INCLINATION": "65.2050",
    "RA_OF_ASC_NODE": "86.7695",
    "ARG_OF_PERICENTER": "236.9254",
    "MEAN_ANOMALY": "122.8336",
    "EPHEMERIS_TYPE": "0",
    "CLASSIFICATION_TYPE": "U",
    "NORAD_CAT_ID": "39155",
    "ELEMENT_SET_NO": "999",
    "REV_AT_EPOCH": "9393",
    "BSTAR": "0.00000000000000",
    "MEAN_MOTION_DOT": "0.00000024",
    "MEAN_MOTION_DDOT": "0.0000000000000",
    "SEMIMAJOR_AXIS": "25507.826",
    "PERIOD": "675.725",
    "APOAPSIS": "19189.958",
    "PERIAPSIS": "19069.424",
    "OBJECT_TYPE": "PAYLOAD",
    "RCS_SIZE": "LARGE",
    "COUNTRY_CODE": "CIS",
    "LAUNCH_DATE": "2013-04-26",
    "SITE": "PKMTR",
    "DECAY_DATE": null,
    "FILE": "4736220",
    "GP_ID": "288142183",
    "TLE_LINE0": "0 COSMOS 2485 (GLONASS)",
    "TLE_LINE1": "1 39155U 13019A   25141.54932728  .00000024  00000-0  00000-0 0  9996",
    "TLE_LINE2": "2 39155  65.2050  86.7695 0023627 236.9254 122.8336  2.13104487 93934"
}